{"type": "FeatureCollection", "features": [ {"type": "Feature", "properties": {"norad_id": 66052, "name": "HRC MONOBLOCK CAMERA", "group": "stations", "lat": 6.882220656786755, "lon": 73.01322325404692, "alt_km": 401.8704401006835, "timestamp": "2025-12-27T13:34:48.042504+00:00", "meta": {"OBJECT_NAME": "HRC MONOBLOCK CAMERA", "OBJECT_ID": "1998-067XR", "EPOCH": "2025-12-27T07:22:24.497472", "MEAN_MOTION": 15.55156889, "ECCENTRICITY": 0.00018561, "INCLINATION": 51.6304, "RA_OF_ASC_NODE": 68.8177, "ARG_OF_PERICENTER": 258.0003, "MEAN_ANOMALY": 102.078, "EPHEMERIS_TYPE": 0, "CLASSIFICATION_TYPE": "U", "NORAD_CAT_ID": 66052, "ELEMENT_SET_NO": 999, "REV_AT_EPOCH": 1110, "BSTAR": 0.00051894374, "MEAN_MOTION_DOT": 0.00035345, "MEAN_MOTION_DDOT": 0}, "tle": {"line1": "1 66052U 98067XR  25361.30722798  .00035345  00000+0  51894-3 0  9993", "line2": "2 66052  51.6304  68.8177 0001856 258.0003 102.0780 15.55156889 11109"}}, "geometry": {"type": "Point", "coordinates": [73.01322325404692, 6.882220656786755]}}, {"type": "Feature", "properties": {"norad_id": 66174, "name": "HTV-X1", "group": "stations", "lat": -2.4996804791846503, "lon": 67.0671749328225, "alt_km": 416.6433015511302, "timestamp": "2025-12-27T13:34:48.042514+00:00", "meta": {"OBJECT_NAME": "HTV-X1", "OBJECT_ID": "2025-241A", "EPOCH": "2025-12-27T04:18:31.505184", "MEAN_MOTION": 15.49864323, "ECCENTRICITY": 0.00032283, "INCLINATION": 51.6319, "RA_OF_ASC_NODE": 70.9638, "ARG_OF_PERICENTER": 308.9173, "MEAN_ANOMALY": 51.1527, "EPHEMERIS_TYPE": 0, "CLASSIFICATION_TYPE": "U", "NORAD_CAT_ID": 66174, "ELEMENT_SET_NO": 999, "REV_AT_EPOCH": 51, "BSTAR": 0.0002516974, "MEAN_MOTION_DOT": 0.00013867, "MEAN_MOTION_DDOT": 0}, "tle": {"line1": "1 66174U 25241A   25361.17953131  .00013867  00000+0  25170-3 0  9997", "line2": "2 66174  51.6319  70.9638 0003228 308.9173  51.1527 15.49864323   512"}}, "geometry": {"type": "Point", "coordinates": [67.0671749328225, -2.4996804791846503]}}, {"type": "Feature", "properties": {"norad_id": 66515, "name": "SZ-21 MODULE", "group": "stations", "lat": 32.75725894841626, "lon": -27.698559684821614, "alt_km": 371.96832198053653, "timestamp": "2025-12-27T13:34:48.042524+00:00", "meta": {"OBJECT_NAME": "SZ-21 MODULE", "OBJECT_ID": "2025-246C", "EPOCH": "2025-12-27T04:08:50.820288", "MEAN_MOTION": 15.63263847, "ECCENTRICITY": 0.0004159, "INCLINATION": 41.4764, "RA_OF_ASC_NODE": 287.9534, "ARG_OF_PERICENTER": 338.5057, "MEAN_ANOMALY": 21.5607, "EPHEMERIS_TYPE": 0, "CLASSIFICATION_TYPE": "U", "NORAD_CAT_ID": 66515, "ELEMENT_SET_NO": 999, "REV_AT_EPOCH": 670, "BSTAR": 0.00034323553, "MEAN_MOTION_DOT": 0.00032194, "MEAN_MOTION_DDOT": 0}, "tle": {"line1": "1 66515U 25246C   25361.17281042  .00032194  00000+0  34324-3 0  9991", "line2": "2 66515  41.4764 287.9534 0004159 338.5057  21.5607 15.63263847  6708"}}, "geometry": {"type": "Point", "coordinates": [-27.698559684821614, 32.75725894841626]}}, {"type": "Feature", "properties": {"norad_id": 66645, "name": "SHENZHOU-22", "group": "stations", "lat": -22.286825914681472, "lon": -100.99575497750057, "alt_km": 396.02252532212333, "timestamp": "2025-12-27T13:34:48.042537+00:00", "meta": {"OBJECT_NAME": "SHENZHOU-22", "OBJECT_ID": "2025-272A", "EPOCH": "2025-12-27T06:02:45.823200", "MEAN_MOTION": 15.59750285, "ECCENTRICITY": 0.0008745, "INCLINATION": 41.4675, "RA_OF_ASC_NODE": 288.5662, "ARG_OF_PERICENTER": 157.7703, "MEAN_ANOMALY": 202.3516, "EPHEMERIS_TYPE": 0, "CLASSIFICATION_TYPE": "U", "NORAD_CAT_ID": 66645, "ELEMENT_SET_NO": 999, "REV_AT_EPOCH": 26598, "BSTAR": 0.00024488937, "MEAN_MOTION_DOT": 0.0001992, "MEAN_MOTION_DDOT": 0}, "tle": {"line1": "1 66645U 25272A   25361.25191925  .00019920  00000+0  24489-3 0  9996", "line2": "2 66645  41.4675 288.5662 0008745 157.7703 202.3516 15.59750285265983"}}, "geometry": {"type": "Point", "coordinates": [-100.99575497750057, -22.286825914681472]}}, {"type": "Feature", "properties": {"norad_id": 66664, "name": "SOYUZ-MS 28", "group": "stations", "lat": -2.4996788585116576, "lon": 67.06717621818319, "alt_km": 416.6433014052045, "timestamp": "2025-12-27T13:34:48.042546+00:00", "meta": {"OBJECT_NAME": "SOYUZ-MS 28", "OBJECT_ID": "2025-275A", "EPOCH": "2025-12-27T04:18:31.505184", "MEAN_MOTION": 15.49864323, "ECCENTRICITY": 0.00032283, "INCLINATION": 51.6319, "RA_OF_ASC_NODE": 70.9638, "ARG_OF_PERICENTER": 308.9173, "MEAN_ANOMALY": 51.1527, "EPHEMERIS_TYPE": 0, "CLASSIFICATION_TYPE": "U", "NORAD_CAT_ID": 66664, "ELEMENT_SET_NO": 999, "REV_AT_EPOCH": 128, "BSTAR": 0.0002516974, "MEAN_MOTION_DOT": 0.00013867, "MEAN_MOTION_DDOT": 0}, "tle": {"line1": "1 66664U 25275A   25361.17953131  .00013867  00000+0  25170-3 0  9998", "line2": "2 66664  51.6319  70.9638 0003228 308.9173  51.1527 15.49864323  1281"}}, "geometry": {"type": "Point", "coordinates": [67.06717621818319, -2.4996788585116576]}}, {"type": "Feature", "properties": {"norad_id": 66906, "name": "1998-067XS", "group": "stations", "lat": 51.40717653889797, "lon": 165.77870548629804, "alt_km": 407.4244945272194, "timestamp": "2025-12-27T13:34:48.042559+00:00", "meta": {"OBJECT_NAME": "1998-067XS", "OBJECT_ID": "1998-067XS", "EPOCH": "2025-12-26T15:31:52.021632", "MEAN_MOTION": 15.5132596, "ECCENTRICITY": 0.00026732, "INCLINATION": 51.6319, "RA_OF_ASC_NODE": 73.4106, "ARG_OF_PERICENTER": 274.6449, "MEAN_ANOMALY": 85.4236, "EPHEMERIS_TYPE": 0, "CLASSIFICATION_TYPE": "U", "NORAD_CAT_ID": 66906, "ELEMENT_SET_NO": 999, "REV_AT_EPOCH": 377, "BSTAR": 0.00048784884, "MEAN_MOTION_DOT": 0.0002883, "MEAN_MOTION_DDOT": 0}, "tle": {"line1": "1 66906U 98067XS  25360.64712988  .00028830  00000+0  48785-3 0  9993", "line2": "2 66906  51.6319  73.4106 0002673 274.6449  85.4236 15.51325960  3771"}}, "geometry": {"type": "Point", "coordinates": [165.77870548629804, 51.40717653889797]}}, {"type": "Feature", "properties": {"norad_id": 66907, "name": "1998-067XT", "group": "stations", "lat": -3.2662019571173184, "lon": -108.74707309794611, "alt_km": 409.9148151288009, "timestamp": "2025-12-27T13:34:48.042569+00:00", "meta": {"OBJECT_NAME": "1998-067XT", "OBJECT_ID": "1998-067XT", "EPOCH": "2025-12-27T05:04:13.175904", "MEAN_MOTION": 15.53277989, "ECCENTRICITY": 0.00038082, "INCLINATION": 51.6318, "RA_OF_ASC_NODE": 70.428, "ARG_OF_PERICENTER": 315.2728, "MEAN_ANOMALY": 44.7954, "EPHEMERIS_TYPE": 0, "CLASSIFICATION_TYPE": "U", "NORAD_CAT_ID": 66907, "ELEMENT_SET_NO": 999, "REV_AT_EPOCH": 386, "BSTAR": 0.0010975373, "MEAN_MOTION_DOT": 0.00070608, "MEAN_MOTION_DDOT": 0}, "tle": {"line1": "1 66907U 98067XT  25361.21126361  .00070608  00000+0  10975-2 0  9991", "line2": "2 66907  51.6318  70.4280 0003808 315.2728  44.7954 15.53277989  3868"}}, "geometry": {"type": "Point", "coordinates": [-108.74707309794611, -3.2662019571173184]}}, {"type": "Feature", "properties": {"norad_id": 66908, "name": "1998-067XU", "group": "stations", "lat": -8.380522399065022, "lon": -104.65023016967679, "alt_km": 410.17251683127324, "timestamp": "2025-12-27T13:34:48.042579+00:00", "meta": {"OBJECT_NAME": "1998-067XU", "OBJECT_ID": "1998-067XU", "EPOCH": "2025-12-27T05:02:32.565696", "MEAN_MOTION": 15.5331388, "ECCENTRICITY": 0.00039981, "INCLINATION": 51.6321, "RA_OF_ASC_NODE": 70.4196, "ARG_OF_PERICENTER": 312.4216, "MEAN_ANOMALY": 47.6435, "EPHEMERIS_TYPE": 0, "CLASSIFICATION_TYPE": "U", "NORAD_CAT_ID": 66908, "ELEMENT_SET_NO": 999, "REV_AT_EPOCH": 386, "BSTAR": 0.00094152837, "MEAN_MOTION_DOT": 0.00060507, "MEAN_MOTION_DDOT": 0}, "tle": {"line1": "1 66908U 98067XU  25361.21009914  .00060507  00000+0  94153-3 0  9994", "line2": "2 66908  51.6321  70.4196 0003998 312.4216  47.6435 15.53313880  3867"}}, "geometry": {"type": "Point", "coordinates": [-104.65023016967679, -8.380522399065022]}}, {"type": "Feature", "properties": {"norad_id": 66909, "name": "SILVERSAT", "group": "stations", "lat": -17.23826317497801, "lon": -97.14567390353453, "alt_km": 409.86225015445143, "timestamp": "2025-12-27T13:34:48.042589+00:00", "meta": {"OBJECT_NAME": "SILVERSAT", "OBJECT_ID": "1998-067XV", "EPOCH": "2025-12-27T04:59:41.464320", "MEAN_MOTION": 15.53631692, "ECCENTRICITY": 0.0003877, "INCLINATION": 51.6317, "RA_OF_ASC_NODE": 70.4068, "ARG_OF_PERICENTER": 318.5439, "MEAN_ANOMALY": 41.5257, "EPHEMERIS_TYPE": 0, "CLASSIFICATION_TYPE": "U", "NORAD_CAT_ID": 66909, "ELEMENT_SET_NO": 999, "REV_AT_EPOCH": 386, "BSTAR": 0.0011884923, "MEAN_MOTION_DOT": 0.00077561, "MEAN_MOTION_DDOT": 0}, "tle": {"line1": "1 66909U 98067XV  25361.20811880  .00077561  00000+0  11885-2 0  9995", "line2": "2 66909  51.6317  70.4068 0003877 318.5439  41.5257 15.53631692  3860"}}, "geometry": {"type": "Point", "coordinates": [-97.14567390353453, -17.23826317497801]}}, {"type": "Feature", "properties": {"norad_id": 66910, "name": "1998-067XW", "group": "stations", "lat": -23.51546917014518, "lon": -91.22830105433094, "alt_km": 409.1143088128465, "timestamp": "2025-12-27T13:34:48.042599+00:00", "meta": {"OBJECT_NAME": "1998-067XW", "OBJECT_ID": "1998-067XW", "EPOCH": "2025-12-27T04:57:29.407104", "MEAN_MOTION": 15.53518427, "ECCENTRICITY": 0.00037007, "INCLINATION": 51.6298, "RA_OF_ASC_NODE": 70.3949, "ARG_OF_PERICENTER": 289.8313, "MEAN_ANOMALY": 70.2278, "EPHEMERIS_TYPE": 0, "CLASSIFICATION_TYPE": "U", "NORAD_CAT_ID": 66910, "ELEMENT_SET_NO": 999, "REV_AT_EPOCH": 386, "BSTAR": 0.0010805922, "MEAN_MOTION_DOT": 0.00070117, "MEAN_MOTION_DDOT": 0}, "tle": {"line1": "1 66910U 98067XW  25361.20659036  .00070117  00000+0  10806-2 0  9992", "line2": "2 66910  51.6298  70.3949 0003700 289.8313  70.2278 15.53518427  3865"}}, "geometry": {"type": "Point", "coordinates": [-91.22830105433094, -23.51546917014518]}}]}